start=new Date('2021-08-30T00:00:00.000Z').valueOf();
sats=[{"FILE":"3105271","BSTAR":"0.00002359400000","DECAY_DATE":null,"MEAN_MOTION_DDOT":"0.0000000000000","INCLINATION":"53.0572","APOAPSIS":"548.583","RCS_SIZE":"LARGE","ARG_OF_PERICENTER":"97.6295","OBJECT_ID":"2021-017Y","RA_OF_ASC_NODE":"61.3481","ELEMENT_SET_NO":"999","PERIOD":"95.592","MEAN_MOTION":"15.06399381","COUNTRY_CODE":"US","SITE":"AFETR","TLE_LINE1":"1 47744U 21017Y   21241.88231197  .00000070  00000-0  23594-4 0  9990","MEAN_MOTION_DOT":"0.00000070","MEAN_ANOMALY":"262.4919","EPHEMERIS_TYPE":"0","OBJECT_NAME":"STARLINK-2158","TLE_LINE2":"2 47744  53.0572  61.3481 0001975  97.6295 262.4919 15.06399381 28809","EPOCH":"2021-08-29T21:10:31.754208","GP_ID":"183701372","SEMIMAJOR_AXIS":"6925.350","LAUNCH_DATE":"2021-03-04","REV_AT_EPOCH":"2880","MEAN_ELEMENT_THEORY":"SGP4","TIME_SYSTEM":"UTC","NORAD_CAT_ID":"47744","PERIAPSIS":"545.848","REF_FRAME":"TEME","CENTER_NAME":"EARTH","CLASSIFICATION_TYPE":"U","OBJECT_TYPE":"PAYLOAD","ECCENTRICITY":"0.00019750"},{"MEAN_ANOMALY":"274.5925","MEAN_MOTION_DOT":"0.00002165","EPHEMERIS_TYPE":"0","TLE_LINE1":"1 47745U 21017Z   21241.84452845  .00002165  00000-0  16419-3 0  9996","GP_ID":"183700120","TLE_LINE2":"2 47745  53.0563  71.5297 0002223  85.5318 274.5925 15.06399855 28602","EPOCH":"2021-08-29T20:16:07.258080","OBJECT_NAME":"STARLINK-2159","NORAD_CAT_ID":"47745","TIME_SYSTEM":"UTC","PERIAPSIS":"545.674","REF_FRAME":"TEME","SEMIMAJOR_AXIS":"6925.349","LAUNCH_DATE":"2021-03-04","MEAN_ELEMENT_THEORY":"SGP4","REV_AT_EPOCH":"2860","ECCENTRICITY":"0.00022230","CENTER_NAME":"EARTH","CLASSIFICATION_TYPE":"U","OBJECT_TYPE":"PAYLOAD","MEAN_MOTION_DDOT":"0.0000000000000","FILE":"3105271","BSTAR":"0.00016419000000","DECAY_DATE":null,"ARG_OF_PERICENTER":"85.5318","INCLINATION":"53.0563","RCS_SIZE":"LARGE","APOAPSIS":"548.754","RA_OF_ASC_NODE":"71.5297","OBJECT_ID":"2021-017Z","ELEMENT_SET_NO":"999","SITE":"AFETR","PERIOD":"95.592","COUNTRY_CODE":"US","MEAN_MOTION":"15.06399855"},{"ECCENTRICITY":"0.00018980","OBJECT_TYPE":"PAYLOAD","CLASSIFICATION_TYPE":"U","CENTER_NAME":"EARTH","REF_FRAME":"TEME","PERIAPSIS":"545.895","NORAD_CAT_ID":"47746","TIME_SYSTEM":"UTC","REV_AT_EPOCH":"2859","MEAN_ELEMENT_THEORY":"SGP4","LAUNCH_DATE":"2021-03-04","SEMIMAJOR_AXIS":"6925.344","TLE_LINE2":"2 47746  53.0552  71.5481 0001898  87.1775 272.9431 15.06401488 28596","GP_ID":"183699870","EPOCH":"2021-08-29T20:05:30.780384","OBJECT_NAME":"STARLINK-2160","EPHEMERIS_TYPE":"0","MEAN_ANOMALY":"272.9431","MEAN_MOTION_DOT":"-0.00000294","TLE_LINE1":"1 47746U 21017AA  21241.83716181 -.00000294  00000-0 -81057-6 0  9998","SITE":"AFETR","MEAN_MOTION":"15.06401488","COUNTRY_CODE":"US","PERIOD":"95.592","ELEMENT_SET_NO":"999","OBJECT_ID":"2021-017AA","RA_OF_ASC_NODE":"71.5481","ARG_OF_PERICENTER":"87.1775","RCS_SIZE":"LARGE","APOAPSIS":"548.523","INCLINATION":"53.0552","MEAN_MOTION_DDOT":"0.0000000000000","DECAY_DATE":null,"BSTAR":"-0.00000081057000","FILE":"3105271"},{"MEAN_MOTION_DDOT":"0.0000000000000","DECAY_DATE":null,"BSTAR":"0.00000474830000","FILE":"3105271","ARG_OF_PERICENTER":"104.8723","APOAPSIS":"548.585","RCS_SIZE":"LARGE","INCLINATION":"53.0573","ELEMENT_SET_NO":"999","RA_OF_ASC_NODE":"61.5635","OBJECT_ID":"2021-017AB","SITE":"AFETR","COUNTRY_CODE":"US","MEAN_MOTION":"15.06404091","PERIOD":"95.592","EPHEMERIS_TYPE":"0","MEAN_ANOMALY":"255.2487","MEAN_MOTION_DOT":"-0.00000211","TLE_LINE1":"1 47747U 21017AB  21241.83439032 -.00000211  00000-0  47483-5 0  9998","GP_ID":"183701122","TLE_LINE2":"2 47747  53.0573  61.5635 0001999 104.8723 255.2487 15.06404091 28770","EPOCH":"2021-08-29T20:01:31.323648","OBJECT_NAME":"STARLINK-2161","REF_FRAME":"TEME","PERIAPSIS":"545.817","NORAD_CAT_ID":"47747","TIME_SYSTEM":"UTC","REV_AT_EPOCH":"2877","MEAN_ELEMENT_THEORY":"SGP4","LAUNCH_DATE":"2021-03-04","SEMIMAJOR_AXIS":"6925.336","ECCENTRICITY":"0.00019990","OBJECT_TYPE":"PAYLOAD","CLASSIFICATION_TYPE":"U","CENTER_NAME":"EARTH"},{"BSTAR":"0.00029456000000","DECAY_DATE":null,"FILE":"3105271","MEAN_MOTION_DDOT":"0.0000000000000","APOAPSIS":"548.605","RCS_SIZE":"LARGE","INCLINATION":"53.0569","ARG_OF_PERICENTER":"106.0407","ELEMENT_SET_NO":"999","RA_OF_ASC_NODE":"61.5968","OBJECT_ID":"2021-017AC","COUNTRY_CODE":"US","MEAN_MOTION":"15.06410312","PERIOD":"95.591","SITE":"AFETR","TLE_LINE1":"1 47748U 21017AC  21241.82701801  .00004110  00000-0  29456-3 0  9993","EPHEMERIS_TYPE":"0","MEAN_ANOMALY":"254.0808","MEAN_MOTION_DOT":"0.00004110","OBJECT_NAME":"STARLINK-2162","TLE_LINE2":"2 47748  53.0569  61.5968 0002055 106.0407 254.0808 15.06410312 28746","EPOCH":"2021-08-29T19:50:54.356064","GP_ID":"183700872","MEAN_ELEMENT_THEORY":"SGP4","REV_AT_EPOCH":"2874","SEMIMAJOR_AXIS":"6925.317","LAUNCH_DATE":"2021-03-04","REF_FRAME":"TEME","NORAD_CAT_ID":"47748","TIME_SYSTEM":"UTC","PERIAPSIS":"545.759","OBJECT_TYPE":"PAYLOAD","CENTER_NAME":"EARTH","CLASSIFICATION_TYPE":"U","ECCENTRICITY":"0.00020550"},{"SITE":"AFETR","MEAN_MOTION":"15.06402647","COUNTRY_CODE":"US","PERIOD":"95.592","ELEMENT_SET_NO":"999","RA_OF_ASC_NODE":"61.8212","OBJECT_ID":"2021-017AD","ARG_OF_PERICENTER":"97.9835","RCS_SIZE":"LARGE","APOAPSIS":"548.587","INCLINATION":"53.0557","MEAN_MOTION_DDOT":"0.0000000000000","BSTAR":"-0.00000290370000","DECAY_DATE":null,"FILE":"3105271","ECCENTRICITY":"0.00019950","OBJECT_TYPE":"PAYLOAD","CENTER_NAME":"EARTH","CLASSIFICATION_TYPE":"U","REF_FRAME":"TEME","NORAD_CAT_ID":"47749","TIME_SYSTEM":"UTC","PERIAPSIS":"545.824","REV_AT_EPOCH":"2873","MEAN_ELEMENT_THEORY":"SGP4","SEMIMAJOR_AXIS":"6925.340","LAUNCH_DATE":"2021-03-04","EPOCH":"2021-08-29T18:36:35.689248","TLE_LINE2":"2 47749  53.0557  61.8212 0001995  97.9835 262.1381 15.06402647 28731","GP_ID":"183699620","OBJECT_NAME":"STARLINK-2163","EPHEMERIS_TYPE":"0","MEAN_MOTION_DOT":"-0.00000325","MEAN_ANOMALY":"262.1381","TLE_LINE1":"1 47749U 21017AD  21241.77541307 -.00000325  00000-0 -29037-5 0  9994"},{"MEAN_ELEMENT_THEORY":"SGP4","REV_AT_EPOCH":"2875","SEMIMAJOR_AXIS":"6925.369","LAUNCH_DATE":"2021-03-04","REF_FRAME":"TEME","NORAD_CAT_ID":"47750","TIME_SYSTEM":"UTC","PERIAPSIS":"545.828","OBJECT_TYPE":"PAYLOAD","CENTER_NAME":"EARTH","CLASSIFICATION_TYPE":"U","ECCENTRICITY":"0.00020300","TLE_LINE1":"1 47750U 21017AE  21241.88599778 -.00000602  00000-0 -21493-4 0  9998","EPHEMERIS_TYPE":"0","MEAN_MOTION_DOT":"-0.00000602","MEAN_ANOMALY":"256.7610","OBJECT_NAME":"STARLINK-2164","TLE_LINE2":"2 47750  53.0565  61.3306 0002030 103.3606 256.7610 15.06393396 28756","EPOCH":"2021-08-29T21:15:50.208192","GP_ID":"183700371","ELEMENT_SET_NO":"999","OBJECT_ID":"2021-017AE","RA_OF_ASC_NODE":"61.3306","MEAN_MOTION":"15.06393396","COUNTRY_CODE":"US","PERIOD":"95.593","SITE":"AFETR","BSTAR":"-0.00002149300000","DECAY_DATE":null,"FILE":"3105271","MEAN_MOTION_DDOT":"0.0000000000000","RCS_SIZE":"LARGE","APOAPSIS":"548.640","INCLINATION":"53.0565","ARG_OF_PERICENTER":"103.3606"},{"MEAN_MOTION_DOT":"0.00002687","MEAN_ANOMALY":"269.7766","EPHEMERIS_TYPE":"0","TLE_LINE1":"1 47751U 21017AF  21241.85005171  .00002687  00000-0  19910-3 0  9998","GP_ID":"183700622","TLE_LINE2":"2 47751  53.0435  51.5456 0001246  90.3365 269.7766 15.06416814 28897","EPOCH":"2021-08-29T20:24:04.467744","OBJECT_NAME":"STARLINK-2168","TIME_SYSTEM":"UTC","NORAD_CAT_ID":"47751","PERIAPSIS":"546.299","REF_FRAME":"TEME","SEMIMAJOR_AXIS":"6925.297","LAUNCH_DATE":"2021-03-04","REV_AT_EPOCH":"2889","MEAN_ELEMENT_THEORY":"SGP4","ECCENTRICITY":"0.00012460","CENTER_NAME":"EARTH","CLASSIFICATION_TYPE":"U","OBJECT_TYPE":"PAYLOAD","MEAN_MOTION_DDOT":"0.0000000000000","FILE":"3105271","BSTAR":"0.00019910000000","DECAY_DATE":null,"ARG_OF_PERICENTER":"90.3365","INCLINATION":"53.0435","APOAPSIS":"548.025","RCS_SIZE":"LARGE","OBJECT_ID":"2021-017AF","RA_OF_ASC_NODE":"51.5456","ELEMENT_SET_NO":"999","SITE":"AFETR","PERIOD":"95.591","MEAN_MOTION":"15.06416814","COUNTRY_CODE":"US"},{"ARG_OF_PERICENTER":"94.8002","APOAPSIS":"548.584","RCS_SIZE":"LARGE","INCLINATION":"53.0576","MEAN_MOTION_DDOT":"0.0000000000000","BSTAR":"0.00000694720000","DECAY_DATE":null,"FILE":"3105271","SITE":"AFETR","COUNTRY_CODE":"US","MEAN_MOTION":"15.06404432","PERIOD":"95.592","ELEMENT_SET_NO":"999","RA_OF_ASC_NODE":"66.6409","OBJECT_ID":"2021-017AG","TLE_LINE2":"2 47752  53.0576  66.6409 0001999  94.8002 265.3215 15.06404432 28727","EPOCH":"2021-08-29T19:36:58.152672","GP_ID":"183701373","OBJECT_NAME":"STARLINK-2169","EPHEMERIS_TYPE":"0","MEAN_ANOMALY":"265.3215","MEAN_MOTION_DOT":"-0.00000178","TLE_LINE1":"1 47752U 21017AG  21241.81733973 -.00000178  00000-0  69472-5 0  9997","ECCENTRICITY":"0.00019990","OBJECT_TYPE":"PAYLOAD","CENTER_NAME":"EARTH","CLASSIFICATION_TYPE":"U","REF_FRAME":"TEME","NORAD_CAT_ID":"47752","TIME_SYSTEM":"UTC","PERIAPSIS":"545.816","REV_AT_EPOCH":"2872","MEAN_ELEMENT_THEORY":"SGP4","SEMIMAJOR_AXIS":"6925.335","LAUNCH_DATE":"2021-03-04"},{"ECCENTRICITY":"0.00016970","OBJECT_TYPE":"PAYLOAD","CLASSIFICATION_TYPE":"U","CENTER_NAME":"EARTH","REF_FRAME":"TEME","PERIAPSIS":"546.025","NORAD_CAT_ID":"47753","TIME_SYSTEM":"UTC","MEAN_ELEMENT_THEORY":"SGP4","REV_AT_EPOCH":"2864","LAUNCH_DATE":"2021-03-04","SEMIMAJOR_AXIS":"6925.336","GP_ID":"183700121","TLE_LINE2":"2 47753  53.0536  71.7497 0001697  88.9965 271.1218 15.06404226 28645","EPOCH":"2021-08-29T19:01:48.072000","OBJECT_NAME":"STARLINK-2170","EPHEMERIS_TYPE":"0","MEAN_ANOMALY":"271.1218","MEAN_MOTION_DOT":"0.00001493","TLE_LINE1":"1 47753U 21017AH  21241.79291750  .00001493  00000-0  11909-3 0  9997","SITE":"AFETR","MEAN_MOTION":"15.06404226","COUNTRY_CODE":"US","PERIOD":"95.592","ELEMENT_SET_NO":"999","RA_OF_ASC_NODE":"71.7497","OBJECT_ID":"2021-017AH","ARG_OF_PERICENTER":"88.9965","RCS_SIZE":"LARGE","APOAPSIS":"548.376","INCLINATION":"53.0536","MEAN_MOTION_DDOT":"0.0000000000000","DECAY_DATE":null,"BSTAR":"0.00011909000000","FILE":"3105271"}];
